ORBCOMM FM115           
1 41186U 15081H   24297.67714575  .00002342  00000+0  50252-3 0  9998
2 41186  46.9978  83.6498 0000502 276.9661  83.1169 14.61470952473165
ORBCOMM FM108           
1 41187U 15081J   24298.06155201  .00001689  00000+0  40678-3 0  9992
2 41187  47.0035 141.4536 0002511 280.3339  79.7263 14.57270834472427
ORBCOMM FM117           
1 41188U 15081K   24298.30201005  .00001669  00000+0  40242-3 0  9999
2 41188  46.9995 139.1605 0002939 299.4473  60.6119 14.57272502472474
ORBCOMM FM116           
1 41189U 15081L   24297.53743970  .00002209  00000+0  52048-3 0  9994
2 41189  47.0008 232.6025 0002039  24.7977 335.3005 14.57275199471128
